[{"OBJECT_NAME":"STARLINK-32195","OBJECT_ID":"2024-144R","EPOCH":"2026-03-09T16:54:10.319040","MEAN_MOTION":15.30191375,"ECCENTRICITY":9.247e-5,"INCLINATION":53.159,"RA_OF_ASC_NODE":216.9022,"ARG_OF_PERICENTER":99.213,"MEAN_ANOMALY":260.8975,"EPHEMERIS_TYPE":0,"CLASSIFICATION_TYPE":"U","NORAD_CAT_ID":60440,"ELEMENT_SET_NO":999,"REV_AT_EPOCH":8931,"BSTAR":-7.527978e-6,"MEAN_MOTION_DOT":-5.82e-6,"MEAN_MOTION_DDOT":0},{"OBJECT_NAME":"SL-19 R\/B","OBJECT_ID":"2011-005B","EPOCH":"2026-03-09T21:50:35.538720","MEAN_MOTION":15.57556472,"ECCENTRICITY":0.01260184,"INCLINATION":99.3438,"RA_OF_ASC_NODE":178.5978,"ARG_OF_PERICENTER":174.8144,"MEAN_ANOMALY":185.4445,"EPHEMERIS_TYPE":0,"CLASSIFICATION_TYPE":"U","NORAD_CAT_ID":37363,"ELEMENT_SET_NO":999,"REV_AT_EPOCH":82354,"BSTAR":0.00054776137,"MEAN_MOTION_DOT":0.00058791,"MEAN_MOTION_DDOT":0}]
